ACS3                    
1 59588U 24077B   24254.39773730  .00042614  00000+0  49286-1 0  9997
2 59588  97.4137 302.7712 0035230 227.4358 132.3819 13.68526319 19050
